ATCOCode,NaptanCode,PlateCode,CleardownCode,CommonName,CommonNameLang,ShortCommonName,ShortCommonNameLang,Landmark,LandmarkLang,Street,StreetLang,Crossing,CrossingLang,Indicator,IndicatorLang,Bearing,NptgLocalityCode,LocalityName,ParentLocalityName,GrandParentLocalityName,Town,TownLang,Suburb,SuburbLang,LocalityCentre,GridType,Easting,Northing,Longitude,Latitude,StopType,BusStopType,TimingStatus,DefaultWaitTime,Notes,NotesLang,AdministrativeAreaCode,CreationDateTime,ModificationDateTime,RevisionNumber,Modification,Status
490001128N,75433,,,Hackney Downs Station,,,,---,,---,,--,,Stop N,,E,N0060500,Hackney,London,,,,,,0,U,534512,185118,-0.061431832,51.54892944,BCT,MKD,OTH,,,,82,2017-05-24T11:22:08,2021-03-14T20:53:03,2,rev,act
490001128O,74509,,,Hackney Downs Station,,,,---,,AMHURST ROAD,,--,,Stop D,,W,N0060500,Hackney,London,,,,,,0,U,534534,185203,-0.061082262,51.54968803,BCT,MKD,OTH,,,,82,2017-05-24T11:22:08,2021-03-14T20:53:03,2,rev,act
490000266G,91532,,,Westminster Station  Parliament Square,,,,---,,---,,--,,Stop G,,S,E0034961,Westminster,London,,,,,,0,U,530171,179738,-0.125988149,51.5015987,BCT,MKD,OTH,,,,82,2015-09-14T13:20:05,2015-09-14T13:20:05,0,rev,act
490002085S,,,,Westminster Pier,,,,---,,---,,--,,Stop K,,S,E0034961,Westminster,London,,,,,,0,U,530310,179741,-0.12398559,51.50159366,BCT,MKD,OTH,,,,82,2017-07-26T08:41:05,2020-04-21T11:55:08,2,rev,act
490003001E,55309,,,Clarence Road Hackney,,,,---,,DALSTON LANE,,--,,Stop Q,,E,N0060500,Hackney,London,,,,,,0,U,534887,185197,-0.05599658,51.54954991,BCT,MKD,OTH,,,,82,2016-06-15T09:32:03,2016-06-15T09:32:03,0,rev,act
490008501P,56430,,,The City Academy,,,,---,,---,,--,,Stop P,,S,N0060500,Hackney,London,,,,,,0,U,535258,185163,-0.050662249,51.54915565,BCT,MKD,OTH,,,,82,2015-04-24T13:38:01,2015-04-24T13:38:01,0,rev,act
490003059D,74818,,,Parliament Square,,,,---,,ABINGDON STREET,,--,,Stop M,,N,E0034961,Westminster,London,,,,,,0,U,530185,179333,-0.125935871,51.49795589,BCT,MKD,OTH,,,,82,2016-07-06T15:06:09,2021-07-01T12:05:06,1,rev,act
490003059E,58284,,,Abingdon Street,,,,---,,---,,--,,Stop L,,S,E0034961,Westminster,London,,,,,,0,U,530209,179293,-0.125605071,51.4975909,BCT,MKD,OTH,,,,82,2015-04-01T15:41:07,2021-07-09T10:06:04,1,rev,act
490003059N,,,,Abingdon Street,,,,---,,---,,--,,Stop N,,N,E0034961,Westminster,London,,,,,,0,U,530198,179247,-0.125780403,51.49718005,BCT,MKD,OTH,,,,82,2015-04-01T15:41:07,2021-07-13T08:50:18,1,del,del
490009644E,54101,,,Graham Road  Hackney Central,,,,---,,GRAHAM ROAD,,--,,Stop E,,W,N0060500,Hackney,London,,,,,,0,U,534837,184861,-0.056845911,51.54654249,BCT,MKD,OTH,,,,82,2016-07-29T15:31:09,2016-07-29T15:31:09,0,rev,act
490009644G,57705,,,Hackney Central  Mare Street,,,,---,,---,,--,,Stop G,,E,N0060500,Hackney,London,,,,,,0,U,534909,184880,-0.05580093,51.54669603,BCT,MKD,OTH,,,,82,2016-08-03T11:41:03,2016-08-03T11:41:03,0,rev,act
490007220Y,58827,,,Lower Clapton Road,,,,---,,MEDIAN ROAD,,--,,Stop Y,,W,N0060500,Hackney,London,,,,,,0,U,535235,185430,-0.050891204,51.55156047,BCT,MKD,OTH,,,,82,2015-04-24T11:35:06,2015-04-24T11:35:06,0,rev,act
490007220Z,74543,,,Glenarm Road,,,,---,,LOWER CLAPTON ROAD,,--,,Stop Z,,N,N0060500,Hackney,London,,,,,,0,U,535145,185455,-0.052178875,51.55180667,BCT,MKD,OTH,,,,82,2015-04-24T15:10:06,2015-04-24T15:10:06,0,rev,act
490003384SA,72807,,,Westminster City Hall,,,,---,,VICTORIA STREET,,--,,Stop SA,,E,E0034961,Westminster,London,,,,,,0,U,529444,179255,-0.13663328,51.49742493,BCT,MKD,OTH,,,,82,2015-12-16T14:25:03,2015-12-16T14:25:03,0,rev,act
490003384SB,54915,,,Westminster City Hall,,,,---,,VICTORIA STREET,,--,,Stop SB,,W,E0034961,Westminster,London,,,,,,0,U,529388,179223,-0.137451276,51.49715016,BCT,MKD,OTH,,,,82,2015-12-16T14:25:03,2015-12-16T14:25:03,0,rev,act
490009411W,55566,,,Jack Dunning Estate,,,,---,,---,,--,,Stop W,,N,N0060500,Hackney,London,,,,,,0,U,535217,185279,-0.051208649,51.55020787,BCT,MKD,OTH,,,,82,2015-04-24T11:33:05,2015-04-24T11:33:05,0,rev,act
490009411X,71453,,,Jack Dunning Estate,,,,---,,---,,--,,Stop X,,S,N0060500,Hackney,London,,,,,,0,U,535230,185267,-0.05102588,51.55009692,BCT,MKD,OTH,,,,82,2015-04-24T11:33:05,2015-04-24T11:33:05,0,rev,act
4900WMR0,,,,Westminster Pier,,,,---,,---,,--,,Entrance 1,,,E0034961,Westminster,London,,,,,,0,U,530336,179738,-0.123612325,51.50156072,FTD,,,,,,82,2017-07-26T08:41:05,2020-04-21T11:55:08,2,rev,act
490005338E,,,,Clapton Bus Garage,,,,---,,---,,--,,Stop,,E,N0060500,Hackney,London,,,,,,0,U,535005,184935,-0.054396238,51.54716733,BCT,MKD,OTH,,,,82,2009-10-21T15:03:07,2013-09-12T15:27:42,2,del,del
490005338HA,,,,Clapton Bus Garage,,,,---,,BOHEMIA PLACE,,--,,Stop,,W,N0060500,Hackney,London,,,,,,0,U,535008,184952,-0.054346482,51.54731938,BCT,MKD,OTH,,,,82,2016-06-14T17:27:08,2016-07-07T08:49:48,1,del,del
4900LONFLDS1,,,,London Fields Rail Station,,,,---,,---,,--,,Entrance 1,,,N0060500,Hackney,London,,,,,,0,U,534788,184247,-0.057787088,51.54103664,RSE,,,,,,82,2017-05-25T11:11:08,2017-05-25T11:11:08,0,rev,act
490009694E,59580,,,Marsham Street,,,,---,,HORSEFERRY ROAD,,--,,Stop NS,,E,E0034961,Westminster,London,,,,,,0,U,529902,178999,-0.130133297,51.49501938,BCT,MKD,OTH,,,,82,2015-07-21T14:49:05,2015-07-21T14:49:05,0,rev,act
490009694W,58726,,,Marsham Street,,,,---,,HORSEFERRY ROAD,,--,,Stop NQ,,W,E0034961,Westminster,London,,,,,,0,U,529845,178973,-0.130963478,51.49479881,BCT,MKD,OTH,,,,82,2015-07-21T14:49:05,2015-07-21T14:49:05,0,rev,act
490001127JA,,,,Hackney Central Station,,,,---,,---,,--,,Stop JA,,SE,N0060500,Hackney,London,,,,,,0,U,534861,185008,-0.056443716,51.54785773,BCT,MKD,OTH,,,,82,2016-08-18T11:05:08,2017-05-02T08:40:54,1,del,del
490001127N,,,,Hackney Central,,,,---,,---,,--,,Stop H,,N,N0060500,Hackney,London,,,,,,0,U,534847,185019,-0.056641285,51.54795992,BCT,MKD,OTH,,,,82,2013-06-04T12:13:05,2013-09-12T15:27:42,4,del,del
4900HACKNYC1,,,,Hackney Central Rail Station,,,,---,,---,,--,,Entrance 1,,,N0060500,Hackney,London,,,,,,0,U,534934,184946,-0.055415327,51.54728315,RSE,,,,,,82,2017-06-07T15:55:07,2021-03-14T20:54:00,1,rev,act
4900HACKNYC2,,,,Hackney Central Rail Station,,,,---,,---,,--,,Entrance 2,,,N0060500,Hackney,London,,,,,,0,U,534883,184976,-0.056138888,51.54756492,RSE,,,,,,82,2017-06-07T15:55:07,2021-03-14T20:54:00,1,rev,act
4900HACKNYC3,,,,Hackney Central Rail Station,,,,---,,---,,--,,Entrance 3,,,N0060500,Hackney,London,,,,,,0,U,534816,184933,-0.057121012,51.54719451,RSE,,,,,,82,2017-06-07T15:55:07,2021-03-14T20:54:00,1,rev,act
4900HAKNYNM1,,,,Hackney Downs Rail Station,,,,---,,---,,--,,Entrance 1,,,N0060500,Hackney,London,,,,,,0,U,534520,185120,-0.061315761,51.54894551,RSE,,,,,,82,2018-11-26T11:18:02,2021-03-14T20:53:03,3,rev,act
4900HAKNYNM2,,,,Hackney Downs Rail Station,,,,---,,---,,--,,Entrance 2,,,N0060500,Hackney,London,,,,,,0,U,534601,185007,-0.060191474,51.54791076,RSE,,,,,,82,2018-11-26T11:18:02,2021-03-14T20:53:03,3,rev,act
490018855N,,,,Victoria StreetArtillery Row,,,,---,,---,,--,,Stop,,N,E0034961,Westminster,London,,,,,,0,U,529507,179224,-0.135737591,51.49713193,BCT,MKD,OTH,,,,82,2009-10-21T15:06:08,2014-03-05T09:43:14,3,del,del
490015048S,,,,Parliament Square,,,,---,,PARLIAMENT STREET,,--,,Stop TB,,S,E0034961,Westminster,London,,,,,,0,U,530165,179706,-0.126086339,51.50131251,BCT,MKD,OTH,,,,82,2015-03-27T08:30:07,2016-07-07T08:49:48,1,del,del
4.90E+11,,,,Parliament Square,,,,---,,---,,--,,Entrance 1,,,E0034961,Westminster,London,,,,,,0,U,530150,179710,-0.126300847,51.50135191,RSE,,,,,,82,2013-03-07T17:08:03,2013-10-31T08:00:00,3,del,del
4.90E+11,,,,Parliament Square,,,,---,,---,,--,,Entrance 2,,,E0034961,Westminster,London,,,,,,0,U,530122,179589,-0.126748605,51.50027096,RSE,,,,,,82,2013-03-07T17:08:03,2013-10-31T08:00:00,3,del,del
490015048F,,,,Parliament Square,,,,---,,PARLIAMENT STREET,,--,,Stop F,,S,E0034961,Westminster,London,,,,,,0,U,530174,179831,-0.125910665,51.50243377,BCT,MKD,OTH,,,,82,2012-07-25T16:58:09,2014-03-20T13:15:39,6,del,del
490001127E,55368,,,Hackney Central Station,,,,---,,---,,--,,Stop T,,SE,N0060500,Hackney,London,,,,,,0,U,534917,184968,-0.055651915,51.54748491,BCT,MKD,OTH,,,,82,2017-06-07T15:55:07,2021-03-14T20:54:00,1,rev,act
490001127J,77588,,,Hackney Central Station,,,,---,,AMHURST ROAD,,--,,Stop J,,W,N0060500,Hackney,London,,,,,,0,U,534837,185010,-0.056788861,51.54788143,BCT,MKD,OTH,,,,82,2017-06-07T15:55:07,2021-03-14T20:54:00,1,rev,act
490001127K,48311,,,Hackney Central Station,,,,---,,AMHURST ROAD,,--,,Stop K,,N,N0060500,Hackney,London,,,,,,0,U,534815,185025,-0.057100204,51.54802148,BCT,MKD,OTH,,,,82,2017-06-07T15:55:07,2021-03-14T20:54:00,1,rev,act
490001128L,74507,,,Amhurst Road  Hackney Downs,,,,---,,---,,--,,Stop L,,NW,N0060500,Hackney,London,,,,,,0,U,534722,185093,-0.0584146,51.54865473,BCT,MKD,OTH,,,,82,2017-03-31T10:40:01,2017-03-31T10:40:01,0,rev,act
490001128M,73026,,,Hackney Downs Dalston Lane,,,,---,,---,,--,,Stop M,,W,N0060500,Hackney,London,,,,,,0,U,534572,185145,-0.060556713,51.54915777,BCT,MKD,OTH,,,,82,2017-03-31T10:39:06,2017-03-31T10:39:06,0,rev,act
4900020125LZ,,,,St Thomas Square,,,,---,,---,,--,,Stop LZ,,N,N0060500,Hackney,London,,,,,,0,U,534967,184358,-0.055165027,51.54199137,BCT,MKD,OTH,,,,82,2013-05-09T14:02:01,2013-09-12T15:27:42,4,del,del
4.90E+11,,,,Gt Smith St Westminster Abbey,,,,---,,---,,--,,Entrance 1,,,E0034961,Westminster,London,,,,,,0,U,529800,179405,-0.131452574,51.49869138,RSE,,,,,,82,2013-03-07T17:08:03,2013-10-31T08:00:00,2,del,del
490010151R,77678,,,Mare Street  Narrow Way,,,,---,,---,,--,,Stop R,,E,N0060500,Hackney,London,,,,,,0,U,534926,185201,-0.055432921,51.54957654,BCT,MKD,OTH,,,,82,2016-08-19T11:27:04,2016-08-19T11:27:04,0,rev,act
490010154Y,91619,,,Pembury Circus,,,,---,,---,,--,,Stop Y,,W,N0060500,Hackney,London,,,,,,0,U,534708,185184,-0.058581572,51.54947582,BCT,MKD,OTH,,,,82,2015-09-01T11:34:02,2015-09-01T11:34:02,0,rev,act
490010153LA,74884,,,Pembury Circus,,,,---,,---,,--,,Stand Z1,,E,N0060500,Hackney,London,,,,,,0,U,534721,185193,-0.058390753,51.54955359,BCT,MKD,OTH,,,,82,2015-09-01T11:34:02,2015-09-01T11:34:02,0,rev,act
490005341S,74310,,,Clapton Square,,,,---,,LOWER CLAPTON ROAD,,--,,Stop S,,SW,N0060500,Hackney,London,,,,,,0,U,535038,185233,-0.053806339,51.54983733,BCT,MKD,OTH,,,,82,2015-09-21T15:00:09,2015-09-21T15:00:09,0,rev,act
490002149ZZ,,,,Northumberland Avenue,,,,---,,HORSE GUARDS AVENUE,,--,,Stop,,W,E0034961,Westminster,London,,,,,,0,U,530243,180326,-0.1247345,51.50686628,BCT,MKD,OTH,,,,82,2019-07-30T15:47:09,2019-07-30T15:47:09,0,rev,act
490002148ZZ,,,,Whitehall Place,,,,---,,HORSE GUARDS AVENUE,,--,,Stop,,E,E0034961,Westminster,London,,,,,,0,U,530174,180223,-0.125766125,51.50595654,BCT,MKD,OTH,,,,82,2019-07-30T15:39:00,2019-07-30T15:39:00,0,rev,act
4900001127H,91362,,,Hackney Central Station,,,,---,,AMHURST ROAD,,--,,Stop H,,SE,N0060500,Hackney,London,,,,,,0,U,534847,185019,-0.056641285,51.54795992,BCT,MKD,OTH,,,,82,2017-06-07T15:55:07,2021-03-14T20:54:00,1,rev,act
4900ZZLUWSM1,,,,Westminster Underground Station,,,,---,,---,,--,,Entrance 1,,,E0034961,Westminster,London,,,,,,0,U,530326,179703,-0.123769232,51.50124849,TMU,,,,,,82,2017-06-13T15:39:07,2021-07-30T10:30:04,2,rev,act
4900ZZLUWSM2,,,,Westminster Underground Station,,,,---,,---,,--,,Entrance 2,,,E0034961,Westminster,London,,,,,,0,U,530245,179668,-0.124948447,51.50095261,TMU,,,,,,82,2017-06-13T15:39:07,2021-07-30T10:30:04,2,rev,act
4900ZZLUWSM3,,,,Westminster Underground Station,,,,---,,---,,--,,Entrance 3,,,E0034961,Westminster,London,,,,,,0,U,530323,179660,-0.123828299,51.50086275,TMU,,,,,,82,2017-06-13T15:39:07,2021-07-30T10:30:04,2,rev,act
4900ZZLUWSM5,,,,Westminster Underground Station,,,,---,,---,,--,,Entrance 5,,,E0034961,Westminster,London,,,,,,0,U,530136,179700,-0.126506117,51.50126526,TMU,,,,,,82,2017-06-13T15:39:07,2021-07-30T10:30:04,2,rev,act
4900ZZLUWSM4,,,,Westminster Underground Station,,,,---,,---,,--,,Entrance 4,,,E0034961,Westminster,London,,,,,,0,U,530166,179699,-0.12607452,51.50124937,TMU,,,,,,82,2017-06-13T15:39:07,2021-07-30T10:30:04,2,rev,act
4900ZZLUWSM6,,,,Westminster Underground Station,,,,---,,---,,--,,Entrance 6,,,E0034961,Westminster,London,,,,,,0,U,530320,179692,-0.123859685,51.50115102,TMU,,,,,,82,2017-06-13T15:39:07,2021-07-30T10:30:04,2,rev,act
490001128P,47834,,,Amhurst Road  Dalston Lane,,,,---,,AMHURST ROAD,,--,,Stop P,,W,N0060500,Hackney,London,,,,,,0,U,534520,185194,-0.061287491,51.54961049,BCT,MKD,OTH,,,,82,2017-03-31T10:40:06,2017-03-31T10:40:06,0,rev,act
490008374N,53939,,,Horseferry Road Westminster,,,,---,,MARSHAM STREET,,--,,Stop NT,,N,E0034961,Westminster,London,,,,,,0,U,529957,179070,-0.129315345,51.49564481,BCT,MKD,OTH,,,,82,2016-08-10T10:50:00,2016-08-10T10:50:00,0,rev,act
490008374S,56041,,,Horseferry Road Westminster,,,,---,,MARSHAM STREET,,--,,Stop NL,,S,E0034961,Westminster,London,,,,,,0,U,529967,179076,-0.129169166,51.49569643,BCT,MKD,OTH,,,,82,2016-08-10T10:50:00,2016-08-10T10:50:00,0,rev,act
490008376E,,,,Horse Guards Avenue,,,,---,,HORSE GUARDS AVENUE,,--,,Stop,,E,E0034961,Westminster,London,,,,,,0,U,530217,180110,-0.125188594,51.50493115,BCT,MKD,OTH,,,,82,2015-04-07T14:18:01,2021-06-11T13:28:49,1,del,del
490008376N,49892,,,Horse Guards Parade,,,,---,,---,,--,,->N,,N,E0034961,Westminster,London,,,,,,0,U,530135,180010,-0.126406256,51.50405135,BCT,MKD,OTH,,,,82,2016-04-19T15:20:04,2016-04-19T15:20:04,0,rev,act
490008376N1,,,,Horse Guards Parade,,,,---,,---,,--,,->NW,,N,E0034961,Westminster,London,,,,,,0,U,530126,180046,-0.126522584,51.50437694,BCT,MKD,OTH,,,,82,2016-04-19T15:20:04,2016-04-19T15:20:04,0,rev,act
490008376S,52166,,,Horse Guards Parade,,,,---,,WHITEHALL,,--,,->S,,S,E0034961,Westminster,London,,,,,,0,U,530156,180041,-0.126092433,51.50432511,BCT,MKD,OTH,,,,82,2016-04-19T15:20:04,2016-04-19T15:20:04,0,rev,act
490008376S1,,,,Banqueting House,,,,---,,---,,--,,Stop,,S,E0034961,Westminster,London,,,,,,0,U,530155,179984,-0.126127847,51.5038131,BCT,MKD,OTH,,,,82,2016-02-15T10:21:06,2016-02-15T10:21:06,0,rev,act
490019981E,91241,,,Navarino Road,,,,---,,---,,--,,->E,,E,N0060500,Hackney,London,,,,,,0,U,534580,184527,-0.060677568,51.54360237,BCT,MKD,OTH,,,,82,2016-02-18T16:14:03,2016-02-18T16:14:03,0,rev,act
490019981X,91242,,,Navarino Road,,,,---,,---,,--,,->W,,W,N0060500,Hackney,London,,,,,,0,U,534594,184520,-0.06047848,51.54353613,BCT,MKD,OTH,,,,82,2016-02-18T16:14:03,2016-02-18T16:14:03,0,rev,act
490012462N,73959,,,St Thomas's Square,,,,---,,MARE STREET,,--,,Stop LQ,,N,N0060500,Hackney,London,,,,,,0,U,534958,184327,-0.055306603,51.54171495,BCT,MKD,OTH,,,,82,2015-04-24T14:01:02,2015-04-24T14:01:02,0,rev,act
490012941S,72447,,,Strutton Ground,,,,---,,HORSEFERRY ROAD,,--,,Stop SH,,S,E0034961,Westminster,London,,,,,,0,U,529668,179123,-0.133456657,51.4961874,BCT,MKD,OTH,,,,82,2017-01-26T08:29:03,2017-01-26T08:29:03,0,rev,act
490012941W,49342,,,Strutton Ground,,,,---,,HORSEFERRY ROAD,,--,,Stop SJ,,N,E0034961,Westminster,London,,,,,,0,U,529649,179136,-0.133725434,51.49630858,BCT,MKD,OTH,,,,82,2017-01-26T08:29:03,2017-01-26T08:29:03,0,rev,act
490018321N,,,,Clapton Square (Western Arm),,,,---,,---,,--,,->N,,N,N0060500,Hackney,London,,,,,,0,U,535002,185360,-0.054276532,51.55098719,BCT,MKD,OTH,,,,82,2016-06-14T17:31:00,2016-07-07T08:49:48,1,del,del
490018333S,,,,Hackney Tesco Morning Lane,,,,---,,---,,--,,Stop,,S,N0060500,Hackney,London,,,,,,0,U,535081,184910,-0.053310461,51.54692451,BCT,MKD,OTH,,,,82,2015-10-12T14:10:06,2016-07-14T08:03:04,1,del,del
490013468H,,,,Hackney Central,,,,---,,---,,--,,Stop,,S,N0060500,Hackney,London,,,,,,0,U,534975,184975,-0.054813288,51.54753395,BCT,MKD,OTH,,,,82,2012-03-26T17:57:03,2013-09-12T15:27:43,8,del,del
490013468N,,,,Hackney Central,,,,---,,---,,--,,Stop,,S,N0060500,Hackney,London,,,,,,0,U,534975,184975,-0.054813288,51.54753395,BCT,MKD,OTH,,,,82,2013-08-27T08:51:02,2014-06-19T09:10:07,3,del,del
490010919W,,,,Penpoll Road,,,,---,,GRAHAM ROAD,,--,,Stop,,W,N0060500,Hackney,London,,,,,,0,U,534693,184829,-0.058933559,51.54628928,BCT,MKD,OTH,,,,82,2015-04-24T13:49:06,2016-07-28T07:36:35,1,del,del
490012462Z,91342,,,St Thomas's Square,,,,---,,---,,--,,Stop LU,,S,N0060500,Hackney,London,,,,,,0,U,534967,184358,-0.055165027,51.54199137,BCT,MKD,OTH,,,,82,2015-04-24T14:01:02,2015-04-24T14:01:02,0,rev,act
490012462S,53018,,,St Thomas's Square,,,,---,,MARE STREET,,--,,Stop LZ,,S,N0060500,Hackney,London,,,,,,0,U,534964,184411,-0.055187954,51.54246836,BCT,MKD,OTH,,,,82,2015-04-24T14:01:02,2015-04-24T14:01:02,0,rev,act
4.90E+11,,,,Westminster Cathedral,,,,---,,---,,--,,Entrance 1,,,E0034961,Westminster,London,,,,,,0,U,529201,179183,-0.14015827,51.49683343,RSE,,,,,,82,2013-03-07T17:08:03,2013-10-31T08:00:00,2,del,del
4.90E+11,,,,Westminster Abbey,,,,---,,---,,--,,Entrance 1,,,E0034961,Westminster,London,,,,,,0,U,529850,179440,-0.130719802,51.49899444,RSE,,,,,,82,2013-03-07T17:08:03,2013-10-31T08:00:00,2,del,del
490016358E,48209,,,Richmond Road Martello Street,,,,---,,---,,--,,Stop LS,,W,N0060500,Hackney,London,,,,,,0,U,534874,184521,-0.056442848,51.54347834,BCT,MKD,OTH,,,,82,2011-06-29T10:10:06,2011-06-29T10:10:06,0,rev,act
490016358W,48724,,,Hackney Grove,,,,---,,---,,--,,Stop LT,,E,N0060500,Hackney,London,,,,,,0,U,534854,184521,-0.05673108,51.54348311,BCT,MKD,OTH,,,,82,2015-05-05T10:56:06,2015-05-05T10:56:06,0,rev,act
490014495R,76870,,,Westminster Abbey,,,,---,,VICTORIA STREET,,--,,Stop R,,E,E0034961,Westminster,London,,,,,,0,U,529831,179444,-0.130991896,51.49903475,BCT,MKD,OTH,,,,82,2018-11-22T14:31:05,2019-10-10T14:58:00,1,rev,act
490014495S,,,,Westminster Abbey,,,,---,,VICTORIA STREET,,--,,Stop S,,E,E0034961,Westminster,London,,,,,,0,U,529868,179467,-0.130450706,51.49923295,BCT,MKD,OTH,,,,82,2018-11-22T14:31:05,2019-10-10T14:58:00,1,rev,act
490014495S1,,,,Westminster Abbey,,,,---,,---,,--,,Stop,,S,E0034961,Westminster,London,,,,,,0,U,529916,179435,-0.129771363,51.49893436,BCT,MKD,OTH,,,,82,2018-11-22T14:31:05,2019-10-10T14:58:00,1,rev,act
490014495T,,,,Westminster Abbey,,,,---,,VICTORIA STREET,,--,,Stop T,,W,E0034961,Westminster,London,,,,,,0,U,529758,179390,-0.132062805,51.49856621,BCT,MKD,OTH,,,,82,2018-11-22T14:31:05,2021-06-11T13:28:50,2,del,del
490014495V,47982,,,Gt Smith St Westminster Abbey,,,,---,,VICTORIA STREET,,--,,Stop V,,W,E0034961,Westminster,London,,,,,,0,U,529801,179405,-0.131438176,51.49869115,BCT,MKD,OTH,,,,82,2017-03-31T10:35:03,2017-03-31T10:35:03,0,rev,act
490014495W,72307,,,Westminster Abbey,,,,---,,GREAT SMITH STREET,,--,,Stop W,,N,E0034961,Westminster,London,,,,,,0,U,529903,179403,-0.129970309,51.49864977,BCT,MKD,OTH,,,,82,2018-11-22T14:31:05,2019-10-10T14:58:00,1,rev,act
490014495X,53680,,,Westminster Abbey,,,,---,,GREAT SMITH STREET,,--,,Stop X,,S,E0034961,Westminster,London,,,,,,0,U,529920,179456,-0.129706044,51.49912216,BCT,MKD,OTH,,,,82,2018-11-22T14:31:05,2019-10-10T14:58:00,1,rev,act
490014496N,56349,,,Westminster Cathedral,,,,---,,---,,--,,Stop N,,E,E0034961,Westminster,London,,,,,,0,U,529194,179183,-0.140259053,51.49683502,BCT,MKD,OTH,,,,82,2017-08-22T15:52:07,2017-08-22T15:52:07,0,rev,act
490014498S,57552,,,Westminster Station  Bridge Street,,,,---,,BRIDGE STREET,,--,,Stop H,,E,E0034961,Westminster,London,,,,,,0,U,530224,179676,-0.12524787,51.50102933,BCT,MKD,OTH,,,,82,2016-10-10T10:00:00,2016-10-10T10:00:00,0,rev,act
490014498Z,,,,Westminster Station  Bridge Street,,,,---,,BRIDGE STREET,,--,,Stop,,E,E0034961,Westminster,London,,,,,,0,U,530304,179697,-0.124088221,51.50119963,BCT,MKD,OTH,,,,82,2016-10-10T10:00:00,2016-10-10T10:00:00,0,rev,act
490008501O,53544,,,The City Academy,,,,---,,---,,--,,Stop O,,W,N0060500,Hackney,London,,,,,,0,U,535346,185068,-0.049430392,51.54828089,BCT,MKD,OTH,,,,82,2015-04-24T13:38:01,2015-04-24T13:38:01,0,rev,act
490010723N,55114,,,Page Street,,,,---,,MARSHAM STREET,,--,,Stop NP,,N,E0034961,Westminster,London,,,,,,0,U,529975,178866,-0.129131261,51.49380739,BCT,MKD,OTH,,,,82,2011-06-29T10:09:05,2011-06-29T10:09:05,0,rev,act
490010723S,51586,,,Page Street,,,,---,,MARSHAM STREET,,--,,Stop NM,,S,E0034961,Westminster,London,,,,,,0,U,529985,178907,-0.128972209,51.49417355,BCT,MKD,OTH,,,,82,2011-06-29T10:09:05,2011-06-29T10:09:05,0,rev,act
490015048A,50906,,,Parliament Square,,,,---,,---,,--,,Stop A,,N,E0034961,Westminster,London,,,,,,0,U,530144,179768,-0.126365863,51.50187452,BCT,MKD,OTH,,,,82,2016-07-06T15:06:09,2021-07-01T12:05:06,1,rev,act
490015048C,74721,,,Parliament Square,,,,---,,---,,--,,Stop C,,N,E0034961,Westminster,London,,,,,,0,U,530142,179734,-0.126407192,51.50156943,BCT,MKD,OTH,,,,82,2016-07-06T15:06:09,2021-07-01T12:05:06,1,rev,act
490015048T,51155,,,Parliament Square,,,,---,,---,,--,,Stop,,S,E0034961,Westminster,London,,,,,,0,U,530168,179836,-0.125995217,51.50248009,BCT,MKD,OTH,,,,82,2016-07-06T15:06:09,2021-07-01T12:05:06,1,rev,act
490015048W,75260,,,Parliament Square,,,,---,,---,,--,,Stop P,,W,E0034961,Westminster,London,,,,,,0,U,530118,179578,-0.126810252,51.50017303,BCT,MKD,OTH,,,,82,2016-07-06T15:06:09,2021-07-01T12:05:06,1,rev,act
490015048Z,91509,,,Parliament Square,,,,---,,---,,--,,Stop Q,,N,E0034961,Westminster,London,,,,,,0,U,530058,179628,-0.127655747,51.50063616,BCT,MKD,OTH,,,,82,2016-07-06T15:06:09,2021-07-01T12:05:06,1,rev,act
4900LONFLDS2,,,,London Fields Rail Station,,,,---,,---,,--,,Entrance 2,,,N0060500,Hackney,London,,,,,,0,U,534761,184245,-0.058176945,51.54102511,RSE,,,,,,82,2017-05-25T11:11:08,2017-05-25T11:11:08,0,rev,act
490019475P,57357,,,Whitehall  Horseguards Avenue,,,,---,,---,,--,,Stop P,,S,E0034961,Westminster,London,,,,,,0,U,530128,180148,-0.126456187,51.50529312,BCT,MKD,OTH,,,,82,2016-11-01T16:53:01,2016-11-01T16:53:01,0,rev,act
490007618C,48640,,,Trelawney Estate,,,,---,,---,,--,,Stop C,,W,N0060500,Hackney,London,,,,,,0,U,535014,184804,-0.054316745,51.54598799,BCT,MKD,OTH,,,,82,2017-03-29T11:35:06,2017-03-29T11:35:06,0,rev,act
490007619V,72721,,,Hackney Baths,,,,---,,LOWER CLAPTON ROAD,,--,,Stop V,,W,N0060500,Hackney,London,,,,,,0,U,535132,185314,-0.052420377,51.55054273,BCT,MKD,OTH,,,,82,2015-10-15T08:45:06,2015-10-15T08:45:06,0,rev,act
490007619VA,71269,,,Hackney Baths,,,,---,,LOWER CLAPTON ROAD,,--,,Stop Q,,W,N0060500,Hackney,London,,,,,,0,U,535147,185336,-0.052195726,51.55073684,BCT,MKD,OTH,,,,82,2015-10-15T08:45:06,2015-10-15T08:45:06,0,rev,act
490007618D,50814,,,Morning Lane Trelawney Estate,,,,---,,MORNING LANE,,--,,Stop D,,E,N0060500,Hackney,London,,,,,,0,U,535105,184874,-0.052978368,51.54659527,BCT,MKD,OTH,,,,82,2015-07-30T08:37:06,2015-07-30T08:37:06,0,rev,act
490007619T,53629,,,Hackney Baths,,,,---,,LOWER CLAPTON ROAD,,--,,Stop,,E,N0060500,Hackney,London,,,,,,0,U,535110,185355,-0.052721747,51.55091643,BCT,MKD,OTH,,,,82,2015-10-15T08:45:06,2015-10-15T08:45:06,0,rev,act
490007619U,71791,,,Hackney Baths,,,,---,,LOWER CLAPTON ROAD,,--,,Stop U,,E,N0060500,Hackney,London,,,,,,0,U,535125,185360,-0.05250362,51.55095777,BCT,MKD,OTH,,,,82,2015-10-15T08:45:06,2015-10-15T08:45:06,0,rev,act
490007626A,58141,,,Hackney Town Hall,,,,---,,MARE STREET,,--,,Stop A,,N,N0060500,Hackney,London,,,,,,0,U,534938,184699,-0.055452314,51.5450626,BCT,MKD,OTH,,,,82,2017-03-31T11:55:00,2017-03-31T11:55:00,0,rev,act
490007626B,52375,,,Hackney Town Hall,,,,---,,MARE STREET,,--,,Stop B,,S,N0060500,Hackney,London,,,,,,0,U,534955,184724,-0.05519773,51.54528319,BCT,MKD,OTH,,,,82,2017-03-31T11:55:00,2017-03-31T11:55:00,0,rev,act
490008329S,48767,,,Homerton Terrace,,,,---,,---,,--,,Stop S,,E,N0060500,Hackney,London,,,,,,0,U,535384,184924,-0.048938058,51.54697777,BCT,MKD,OTH,,,,82,2015-04-24T13:43:09,2015-04-24T13:43:09,0,rev,act
490000005,,,,Bressenden Place,,,,---,,---,,--,,Stop CN,,E,E0034961,Westminster,London,,,,,,0,U,529055,179279,-0.142225237,51.49772947,BCT,MKD,OTH,,,,82,2020-10-21T09:52:06,2021-06-29T14:34:48,1,del,del
490001128RZ,,,,Hackney Downs Station,,,,---,,AMHURST ROAD,,--,,Stop,,W,N0060500,Hackney,London,,,,,,0,U,534534,185203,-0.061082262,51.54968803,BCT,MKD,OTH,,,,82,2020-11-18T13:29:08,2021-03-14T20:53:03,1,rev,act
490001128RY,,,,Hackney Downs Station,,,,---,,---,,--,,Stop,,E,N0060500,Hackney,London,,,,,,0,U,534512,185118,-0.061431832,51.54892944,BCT,MKD,OTH,,,,82,2020-11-18T13:29:08,2021-03-14T20:53:03,1,rev,act
9100LONFLDS,,,,London Fields Rail Station,,,,,,-,,,,,,,N0060500,Hackney,London,,,,,,1,U,534790,184260,-0.057753292,51.54115298,RLY,,,,,,110,2006-09-08T14:30:00,2007-09-26T13:00:00,1,rev,act
9100HACKNYC,,,,Hackney Central Rail Station,,,,,,-,,,,,,,N0060500,Hackney,London,,,,,,1,U,534890,184925,-0.056057533,51.54710495,RLY,,,,,,110,2006-09-08T14:30:00,2010-05-14T15:13:00,2,rev,act
9100HAKNYNM,,,,Hackney Downs Rail Station,,,,,,-,,,,,,,N0060500,Hackney,London,,,,,,1,U,534555,185100,-0.060818937,51.54875744,RLY,,,,,,110,2006-09-08T14:30:00,2010-05-14T15:14:00,2,rev,act
9300WMR,,,,Westminster Pier,,,,,,Off Victoria Embankment,,,,,,,E0034961,Westminster,London,,,,,,0,U,530327,179738,-0.123741915,51.50156279,FER,,,,,,146,2005-10-10T00:00:00,2013-07-25T15:21:00,3,rev,act
9300WMR1,,,,Westminster Pier,,,,,,Off Victoria Embankment,,,,Quay,,,E0034961,Westminster,London,,,,,,0,U,530365,179767,-0.123184049,51.50181465,FBT,,,,,,146,2010-12-03T18:53:00,2013-07-25T15:22:00,3,rev,act
9300WMR2,,,,Westminster Pier,,,,,,Off Victoria Embankment,,,,Quay,,,E0034961,Westminster,London,,,,,,0,U,530350,179767,-0.123400034,51.5018181,FBT,,,,,,146,2016-03-11T15:32:00,2016-03-11T15:36:00,1,rev,act
9300WMR3,,,,Westminster Pier,,,,,,Off Victoria Embankment,,,,Quay,,,E0034961,Westminster,London,,,,,,0,U,530353,179767,-0.123356837,51.50181741,FBT,,,,,,146,2016-03-11T15:33:00,2016-03-11T15:36:00,1,rev,act
9300WMR4,,,,Westminster Pier,,,,,,Off Victoria Embankment,,,,Quay,,,E0034961,Westminster,London,,,,,,0,U,530356,179767,-0.12331364,51.50181672,FBT,,,,,,146,2016-03-11T15:34:00,2016-03-11T15:36:00,1,rev,act
9300WMR5,,,,Westminster Pier,,,,,,Off Victoria Embankment,,,,Quay,,,E0034961,Westminster,London,,,,,,0,U,530359,179767,-0.123270443,51.50181603,FBT,,,,,,146,2016-03-11T15:34:00,2016-03-11T15:36:00,1,rev,act
9300WMR6,,,,Westminster Pier,,,,,,Off Victoria Embankment,,,,Quay,,,E0034961,Westminster,London,,,,,,0,U,530362,179767,-0.123227246,51.50181534,FBT,,,,,,146,2016-03-11T15:35:00,2016-03-11T15:36:00,1,rev,act
9400ZZLUWSM,,,,Westminster Underground Station,,,,TBA,,-,,,,,,,E0034961,Westminster,London,,,,,,0,U,530250,179709,-0.12486133,51.50131991,MET,,,,,,147,2005-09-26T00:00:00,2007-09-26T09:00:00,1,rev,act
9400ZZLUWSM1,,,,Westminster Underground Station,,,,,,-,,,,,,,E0034961,Westminster,London,,,,,,0,U,530249,179705,-0.124877204,51.50128419,PLT,,,,,,147,2006-02-15T00:00:00,2007-09-26T09:00:00,2,rev,act
9400ZZLUWSM2,,,,Westminster Underground Station,,,,,,-,,,,,,,E0034961,Westminster,London,,,,,,0,U,530252,179694,-0.124838065,51.50118465,PLT,,,,,,147,2006-02-15T00:00:00,2007-09-26T09:00:00,2,rev,act
9400ZZLUWSM3,,,,Westminster Underground Station,,,,,,-,,,,,,,E0034961,Westminster,London,,,,,,0,U,530257,179674,-0.124773449,51.50100376,PLT,,,,,,147,2006-02-15T00:00:00,2007-09-26T09:00:00,2,rev,act
9400ZZLUWSM4,,,,Westminster Underground Station,,,,,,-,,,,,,,E0034961,Westminster,London,,,,,,0,U,530246,179674,-0.124931835,51.5010063,PLT,,,,,,147,2006-02-15T00:00:00,2007-09-26T09:00:00,2,rev,act
